SatCatId,ObjectName,LaunchYear,OrbitalPeriod,LaunchMass,StatusCode,Inclination,Status,UcsData,OrbitClassEstimated,LaunchSiteCountry,Owner,UseType,Purpose,LaunchVehicleClass,TLE1,TLE2,MeanMotion,Eccentricity,OrbitClass
56799,STARLINK-5953,2023,94.59,-1.0,+,70.0,Active,0,LEO,USA,USA,Unknown,Unknown,Unknown,1 56799U 23078AJ  23275.91667824 -.00915342  00000+0 -46238-1 0  9997,2 56799  70.0004  65.7232 0003357 274.0021   9.9621 15.19613735  5966,15.19613735,0.0003357,LEO
56800,STARLINK-6036,2023,94.67,-1.0,+,70.0,Active,0,LEO,USA,USA,Unknown,Unknown,Unknown,1 56800U 23078AK  23276.58334491 -.00949272  00000+0 -51861-1 0  9992,2 56800  70.0008  64.0869 0003240 269.0606 331.6932 15.17003472 19903,15.17003472,0.000324,LEO
56801,STARLINK-6087,2023,91.72,-1.0,+,70.0,Active,0,LEO,USA,USA,Unknown,Unknown,Unknown,1 56801U 23078AL  23276.50482199  .00000959  00000+0  97467-5 0  9998,2 56801  69.9967  61.1919 0003496 267.6828  92.3967 15.69916123 19960,15.69916123,0.0003496,LEO
56802,STARLINK-6070,2023,91.72,-1.0,+,70.0,Active,0,LEO,USA,USA,Unknown,Unknown,Unknown,1 56802U 23078AM  23276.50556042  .00000639  00000+0  70826-5 0  9993,2 56802  69.9985  61.1964 0002859 267.2425  92.8443 15.69918717 19967,15.69918717,0.0002859,LEO
56803,STARLINK-6029,2023,94.63,-1.0,+,70.0,Active,0,LEO,USA,USA,Unknown,Unknown,Unknown,1 56803U 23078AN  23276.58334491 -.00949866  00000+0 -51065-1 0  9990,2 56803  70.0009  64.0443 0003327 269.0562   9.1967 15.17564164 19907,15.17564164,0.0003327,LEO
56804,STARLINK-6069,2023,91.72,-1.0,+,70.0,Active,0,LEO,USA,USA,Unknown,Unknown,Unknown,1 56804U 23078AP  23276.50566702 -.00000042  00000+0  14190-5 0  9990,2 56804  69.9973  61.1954 0003216 278.6969  81.3862 15.69918699 19969,15.69918699,0.0003216,LEO
56805,STARLINK-6064,2023,91.72,-1.0,+,70.0,Active,0,LEO,USA,USA,Unknown,Unknown,Unknown,1 56805U 23078AQ  23276.12283268 -.00001332  00000+0 -93059-5 0  9997,2 56805  69.9990  62.2671 0003689 269.3356  90.7417 15.69923208 19904,15.69923208,0.0003689,LEO
56806,STARLINK-6072,2023,91.72,-1.0,+,70.0,Active,0,LEO,USA,USA,Unknown,Unknown,Unknown,1 56806U 23078AR  23276.50535035  .00000140  00000+0  29319-5 0  9994,2 56806  70.0003  61.1951 0003136 269.4477  90.6359 15.69915647 19962,15.69915647,0.0003136,LEO
56807,STARLINK-6073,2023,91.72,-1.0,+,70.0,Active,0,LEO,USA,USA,Unknown,Unknown,Unknown,1 56807U 23078AS  23276.12188783  .00000715  00000+0  77127-5 0  9995,2 56807  70.0013  62.2633 0003148 270.0263  90.0572 15.69918371 19909,15.69918371,0.0003148,LEO
56808,STARLINK-6042,2023,91.44,-1.0,+,70.0,Active,0,LEO,USA,USA,Unknown,Unknown,Unknown,1 56808U 23078AT  23276.50546184  .00119058  00000+0  80679-3 0  9996,2 56808  69.9973  60.7627 0003713 289.0564  71.0231 15.74485895 19974,15.74485895,0.0003713,LEO
56809,STARLINK-6040,2023,94.59,-1.0,+,70.0,Active,0,LEO,USA,USA,Unknown,Unknown,Unknown,1 56809U 23078AU  23276.25001157 -.00866558  00000+0 -44481-1 0  9990,2 56809  70.0007  64.8563 0003306 269.4766  35.9958 15.18922624 19850,15.18922624,0.0003306,LEO
56810,STARLINK-6031,2023,94.62,-1.0,+,70.0,Active,0,LEO,USA,USA,Unknown,Unknown,Unknown,1 56810U 23078AV  23276.58334491 -.00949336  00000+0 -50625-1 0  9991,2 56810  70.0009  64.0240 0003341 268.2604  28.0780 15.17843334 19906,15.17843334,0.0003341,LEO
56811,STARLINK-6063,2023,91.72,-1.0,+,70.0,Active,0,LEO,USA,USA,Unknown,Unknown,Unknown,1 56811U 23078AW  23276.12157076  .00001175  00000+0  11542-4 0  9990,2 56811  70.0005  62.2624 0003274 270.7142  89.3678 15.69921708 19904,15.69921708,0.0003274,LEO
56812,STARLINK-6065,2023,91.72,-1.0,+,70.0,Active,0,LEO,USA,USA,Unknown,Unknown,Unknown,1 56812U 23078AX  23276.12220342  .00000206  00000+0  34777-5 0  9998,2 56812  70.0011  62.2657 0002947 269.7003  90.3855 15.69923631 19904,15.69923631,0.0002947,LEO
56813,STARLINK-6056,2023,94.57,-1.0,+,70.0,Active,0,LEO,USA,USA,Unknown,Unknown,Unknown,1 56813U 23078AY  23276.25001157 -.00866673  00000+0 -44100-1 0  9991,2 56813  70.0007  64.8334 0003345 269.7414  56.0166 15.19223504 19854,15.19223504,0.0003345,LEO
56814,STARLINK-6059,2023,94.58,-1.0,+,70.0,Active,0,LEO,USA,USA,Unknown,Unknown,Unknown,1 56814U 23078AZ  23276.25001157 -.00866584  00000+0 -44406-1 0  9992,2 56814  70.0007  64.8505 0003331 271.1165  39.5307 15.18981705 19856,15.18981705,0.0003331,LEO
56815,STARLINK-6057,2023,93.34,-1.0,+,70.0,Active,0,LEO,USA,USA,Unknown,Unknown,Unknown,1 56815U 23078BA  23276.58334491 -.00653510  00000+0 -17471-1 0  9994,2 56815  70.0003  66.4575 0003616 275.3211  79.2542 15.40104736 19849,15.40104736,0.0003616,LEO
56816,STARLINK-6067,2023,91.72,-1.0,+,70.0,Active,0,LEO,USA,USA,Unknown,Unknown,Unknown,1 56816U 23078BB  23275.80276919 -.00006441  00000+0 -51862-4 0  9999,2 56816  70.0004  63.1585 0003568 269.4524  90.6263 15.69911596 19593,15.69911596,0.0003568,LEO
56817,STARLINK-5982,2023,94.6,-1.0,+,70.0,Active,0,LEO,USA,USA,Unknown,Unknown,Unknown,1 56817U 23078BC  23276.25001157 -.00866415  00000+0 -44771-1 0  9993,2 56817  70.0007  64.8726 0003281 272.3079  18.6303 15.18692515 19857,15.18692515,0.0003281,LEO
56818,STARLINK-6028,2023,94.55,-1.0,+,70.0,Active,0,LEO,USA,USA,Unknown,Unknown,Unknown,1 56818U 23078BD  23276.25001157 -.00866462  00000+0 -43633-1 0  9992,2 56818  70.0006  64.8091 0003351 272.1271  75.3599 15.19580430 19852,15.1958043,0.0003351,LEO
56823,STARLINK-30119,2023,95.09,-1.0,+,43.0,Active,0,LEO,USA,USA,Unknown,Unknown,Unknown,1 56823U 23079A   23276.11829262  .00046932  00000+0  25122-2 0  9993,2 56823  43.0015 257.0174 0001312 251.2883 108.7821 15.14323519 18876,15.14323519,0.0001312,LEO
56824,STARLINK-30120,2023,95.09,-1.0,+,43.0,Active,0,LEO,USA,USA,Unknown,Unknown,Unknown,1 56824U 23079B   23276.22456046  .00032113  00000+0  17256-2 0  9997,2 56824  43.0015 256.9483 0000478 214.1293 145.9523 15.14338854 18884,15.14338854,4.78e-05,LEO
56825,STARLINK-30084,2023,95.09,-1.0,+,43.0,Active,0,LEO,USA,USA,Unknown,Unknown,Unknown,1 56825U 23079C   23276.35317489  .00016609  00000+0  90037-3 0  9990,2 56825  43.0014 256.1926 0000841 246.1185 113.9574 15.14336901 18902,15.14336901,8.41e-05,LEO
56826,STARLINK-30114,2023,95.84,-1.0,+,43.0,Active,0,LEO,USA,USA,Unknown,Unknown,Unknown,1 56826U 23079D   23276.22915200  .00010439  00000+0  78659-3 0  9993,2 56826  42.9996 255.1086 0000974 263.4634  96.6097 15.02540281 18917,15.02540281,9.74e-05,LEO
56827,STARLINK-30151,2023,95.09,-1.0,+,43.0,Active,0,LEO,USA,USA,Unknown,Unknown,Unknown,1 56827U 23079E   23276.34988037  .00020914  00000+0  11302-2 0  9995,2 56827  43.0012 256.1681 0000727 228.5044 131.5740 15.14327060 18908,15.1432706,7.27e-05,LEO
56828,STARLINK-30152,2023,95.09,-1.0,+,43.0,Active,0,LEO,USA,USA,Unknown,Unknown,Unknown,1 56828U 23079F   23275.68698501  .00009224  00000+0  50628-3 0  9992,2 56828  42.9991 259.7928 0000141 288.9645  71.1187 15.14313438 19137,15.14313438,1.41e-05,LEO
56832,STARLINK-30128,2023,95.84,-1.0,+,43.0,Active,0,LEO,USA,USA,Unknown,Unknown,Unknown,1 56832U 23079K   23276.17647159  .00020680  00000+0  15410-2 0  9993,2 56832  43.0001 229.3364 0001248 248.4585 111.6125 15.02546105 19190,15.02546105,0.0001248,LEO
56833,STARLINK-30131,2023,95.84,-1.0,+,43.0,Active,0,LEO,USA,USA,Unknown,Unknown,Unknown,1 56833U 23079L   23276.22963716  .00001268  00000+0  10890-3 0  9999,2 56833  43.0016 229.0326 0001059 256.0840 103.9884 15.02551351 19208,15.02551351,0.0001059,LEO
56834,STARLINK-30069,2023,95.09,-1.0,+,43.0,Active,0,LEO,USA,USA,Unknown,Unknown,Unknown,1 56834U 23079M   23276.23285932  .00042414  00000+0  22711-2 0  9990,2 56834  43.0012 256.1536 0000755 263.8809  96.1952 15.14352918 18896,15.14352918,7.55e-05,LEO
56835,STARLINK-30144,2023,95.09,-1.0,+,43.0,Active,0,LEO,USA,USA,Unknown,Unknown,Unknown,1 56835U 23079N   23275.81230945  .00012398  00000+0  67590-3 0  9991,2 56835  42.9993 259.0131 0000564 233.8710 126.2084 15.14319621 19157,15.14319621,5.64e-05,LEO
56836,STARLINK-30142,2023,95.09,-1.0,+,43.0,Active,0,LEO,USA,USA,Unknown,Unknown,Unknown,1 56836U 23079P   23275.80901350  .00012566  00000+0  68501-3 0  9996,2 56836  42.9993 258.9901 0000357 240.8718 119.2093 15.14313290 19155,15.1431329,3.57e-05,LEO
56837,STARLINK-30133,2023,95.09,-1.0,+,43.0,Active,0,LEO,USA,USA,Unknown,Unknown,Unknown,1 56837U 23079Q   23276.29289066  .00009290  00000+0  50962-3 0  9996,2 56837  43.0012 254.8862 0000810 247.4791 112.5970 15.14330900 18919,15.143309,8.1e-05,LEO
56838,STARLINK-30123,2023,95.84,-1.0,+,43.0,Active,0,LEO,USA,USA,Unknown,Unknown,Unknown,1 56838U 23079R   23276.09953261  .00012317  00000+0  92503-3 0  9991,2 56838  42.9993 255.9168 0000435 228.8610 131.2194 15.02545526 18884,15.02545526,4.35e-05,LEO
56839,STARLINK-30076,2023,95.09,-1.0,+,43.0,Active,0,LEO,USA,USA,Unknown,Unknown,Unknown,1 56839U 23079S   23276.36740061  .00035215  00000+0  18889-2 0  9990,2 56839  43.0015 254.5853 0001171 233.2574 126.8165 15.14365631 18928,15.14365631,0.0001171,LEO
56840,STARLINK-30073,2023,95.84,-1.0,+,43.0,Active,0,LEO,USA,USA,Unknown,Unknown,Unknown,1 56840U 23079T   23276.30254936  .00017246  00000+0  12877-2 0  9992,2 56840  43.0005 241.8349 0000728 228.8983 131.1796 15.02561639 19067,15.02561639,7.28e-05,LEO
56841,STARLINK-30078,2023,95.09,-1.0,+,43.0,Active,0,LEO,USA,USA,Unknown,Unknown,Unknown,1 56841U 23079U   23276.32679460  .00042782  00000+0  22912-2 0  9992,2 56841  43.0006 255.9927 0001242 243.1385 116.9334 15.14343284 18903,15.14343284,0.0001242,LEO
56842,STARLINK-30135,2023,95.84,-1.0,+,43.0,Active,0,LEO,USA,USA,Unknown,Unknown,Unknown,1 56842U 23079V   23276.22250219  .00011457  00000+0  86148-3 0  9996,2 56842  43.0011 255.1417 0000513 200.5140 159.5681 15.02549446 18905,15.02549446,5.13e-05,LEO
56843,STARLINK-30137,2023,95.89,-1.0,+,43.0,Active,0,LEO,USA,USA,Unknown,Unknown,Unknown,1 56843U 23079W   23275.66344522  .00006023  00000+0  47049-3 0  9995,2 56843  43.0006 257.8313 0000556 107.1141 252.9762 15.01720436 19159,15.01720436,5.56e-05,LEO
